{
  "type": "FeatureCollection",
  "features": [
    {
      "type": "Feature",
      "properties": {
        "norad_id": 36204,
        "name": "FENGYUN 1C DEB",
        "group": "fengyun-1c-debris",
        "lat": -80.57030621862943,
        "lon": 175.95066055870686,
        "alt_km": 783.1717631939746,
        "timestamp": "2025-12-05T16:54:14.934878+00:00",
        "meta_object_name": "FENGYUN 1C DEB",
        "meta_object_id": "1999-025DUD",
        "meta_epoch": "2025-12-04T12:52:24.876192",
        "meta_mean_motion": 14.34488584,
        "meta_eccentricity": 0.0020013,
        "meta_inclination": 99.2915,
        "meta_ra_of_asc_node": 75.0011,
        "meta_arg_of_pericenter": 185.0266,
        "meta_mean_anomaly": 175.0719,
        "meta_ephemeris_type": 0,
        "meta_classification_type": "U",
        "meta_norad_cat_id": 36204,
        "meta_element_set_no": 999,
        "meta_rev_at_epoch": 94310,
        "meta_bstar": 0.0030031,
        "meta_mean_motion_dot": 8.445e-05,
        "meta_mean_motion_ddot": 0,
        "tle_line1": "1 36204U 99025DUD 25338.53639903  .00008445  00000+0  30031-2 0  9998",
        "tle_line2": "2 36204  99.2915  75.0011 0020013 185.0266 175.0719 14.34488584943106"
      },
      "geometry": {
        "type": "Point",
        "coordinates": [
          175.95066055870686,
          -80.57030621862943
        ]
      }
    },
    {
      "type": "Feature",
      "properties": {
        "norad_id": 36206,
        "name": "FENGYUN 1C DEB",
        "group": "fengyun-1c-debris",
        "lat": -70.15318623600373,
        "lon": 158.71740527110424,
        "alt_km": 846.3258486905861,
        "timestamp": "2025-12-05T16:54:14.934887+00:00",
        "meta_object_name": "FENGYUN 1C DEB",
        "meta_object_id": "1999-025DUF",
        "meta_epoch": "2025-11-26T07:02:56.668416",
        "meta_mean_motion": 14.21517518,
        "meta_eccentricity": 0.00312218,
        "meta_inclination": 98.4807,
        "meta_ra_of_asc_node": 354.0922,
        "meta_arg_of_pericenter": 66.8272,
        "meta_mean_anomaly": 293.619,
        "meta_ephemeris_type": 0,
        "meta_classification_type": "U",
        "meta_norad_cat_id": 36206,
        "meta_element_set_no": 999,
        "meta_rev_at_epoch": 64187,
        "meta_bstar": 0.00073137291,
        "meta_mean_motion_dot": 1.568e-05,
        "meta_mean_motion_ddot": 0,
        "tle_line1": "1 36206U 99025DUF 25330.29371144  .00001568  00000+0  73137-3 0  9999",
        "tle_line2": "2 36206  98.4807 354.0922 0031221  66.8272 293.6190 14.21517518641871"
      },
      "geometry": {
        "type": "Point",
        "coordinates": [
          158.71740527110424,
          -70.15318623600373
        ]
      }
    },
    {
      "type": "Feature",
      "properties": {
        "norad_id": 36211,
        "name": "FENGYUN 1C DEB",
        "group": "fengyun-1c-debris",
        "lat": -75.25836981706622,
        "lon": 7.71446460394947,
        "alt_km": 649.684929388899,
        "timestamp": "2025-12-05T16:54:14.934897+00:00",
        "meta_object_name": "FENGYUN 1C DEB",
        "meta_object_id": "1999-025DUL",
        "meta_epoch": "2025-12-01T17:16:14.280672",
        "meta_mean_motion": 14.25927251,
        "meta_eccentricity": 0.02665414,
        "meta_inclination": 98.503,
        "meta_ra_of_asc_node": 329.193,
        "meta_arg_of_pericenter": 261.2872,
        "meta_mean_anomaly": 95.8036,
        "meta_ephemeris_type": 0,
        "meta_classification_type": "U",
        "meta_norad_cat_id": 36211,
        "meta_element_set_no": 999,
        "meta_rev_at_epoch": 94212,
        "meta_bstar": 0.00059239052,
        "meta_mean_motion_dot": 1.999e-05,
        "meta_mean_motion_ddot": 0,
        "tle_line1": "1 36211U 99025DUL 25335.71960973  .00001999  00000+0  59239-3 0  9996",
        "tle_line2": "2 36211  98.5030 329.1930 0266541 261.2872  95.8036 14.25927251942126"
      },
      "geometry": {
        "type": "Point",
        "coordinates": [
          7.71446460394947,
          -75.25836981706622
        ]
      }
    },
    {
      "type": "Feature",
      "properties": {
        "norad_id": 36216,
        "name": "FENGYUN 1C DEB",
        "group": "fengyun-1c-debris",
        "lat": 66.2383737084465,
        "lon": -159.75493583548163,
        "alt_km": 813.6636971215603,
        "timestamp": "2025-12-05T16:54:14.934906+00:00",
        "meta_object_name": "FENGYUN 1C DEB",
        "meta_object_id": "1999-025DUR",
        "meta_epoch": "2025-12-03T18:41:03.384096",
        "meta_mean_motion": 14.18834784,
        "meta_eccentricity": 0.00454101,
        "meta_inclination": 98.6096,
        "meta_ra_of_asc_node": 358.2465,
        "meta_arg_of_pericenter": 43.693,
        "meta_mean_anomaly": 316.7826,
        "meta_ephemeris_type": 0,
        "meta_classification_type": "U",
        "meta_norad_cat_id": 36216,
        "meta_element_set_no": 999,
        "meta_rev_at_epoch": 64245,
        "meta_bstar": 0.00043256372,
        "meta_mean_motion_dot": 8.67e-06,
        "meta_mean_motion_ddot": 0,
        "tle_line1": "1 36216U 99025DUR 25337.77851139  .00000867  00000+0  43256-3 0  9997",
        "tle_line2": "2 36216  98.6096 358.2465 0045410  43.6930 316.7826 14.18834784642452"
      },
      "geometry": {
        "type": "Point",
        "coordinates": [
          -159.75493583548163,
          66.2383737084465
        ]
      }
    },
    {
      "type": "Feature",
      "properties": {
        "norad_id": 36218,
        "name": "FENGYUN 1C DEB",
        "group": "fengyun-1c-debris",
        "lat": 42.066800726119055,
        "lon": 8.206012939625893,
        "alt_km": 706.7124603390093,
        "timestamp": "2025-12-05T16:54:14.934915+00:00",
        "meta_object_name": "FENGYUN 1C DEB",
        "meta_object_id": "1999-025DUT",
        "meta_epoch": "2025-12-03T07:08:05.265024",
        "meta_mean_motion": 14.70767132,
        "meta_eccentricity": 0.0073471,
        "meta_inclination": 99.0773,
        "meta_ra_of_asc_node": 177.2311,
        "meta_arg_of_pericenter": 324.8759,
        "meta_mean_anomaly": 34.7612,
        "meta_ephemeris_type": 0,
        "meta_classification_type": "U",
        "meta_norad_cat_id": 36218,
        "meta_element_set_no": 999,
        "meta_rev_at_epoch": 59004,
        "meta_bstar": 0.0015383,
        "meta_mean_motion_dot": 9.736e-05,
        "meta_mean_motion_ddot": 0,
        "tle_line1": "1 36218U 99025DUT 25337.29728316  .00009736  00000+0  15383-2 0  9999",
        "tle_line2": "2 36218  99.0773 177.2311 0073471 324.8759  34.7612 14.70767132590048"
      },
      "geometry": {
        "type": "Point",
        "coordinates": [
          8.206012939625893,
          42.066800726119055
        ]
      }
    },
    {
      "type": "Feature",
      "properties": {
        "norad_id": 36224,
        "name": "FENGYUN 1C DEB",
        "group": "fengyun-1c-debris",
        "lat": 36.74548077806429,
        "lon": -146.19528875987825,
        "alt_km": 900.9030788066148,
        "timestamp": "2025-12-05T16:54:14.934924+00:00",
        "meta_object_name": "FENGYUN 1C DEB",
        "meta_object_id": "1999-025DUZ",
        "meta_epoch": "2025-12-03T09:50:44.311776",
        "meta_mean_motion": 14.12755501,
        "meta_eccentricity": 0.01150636,
        "meta_inclination": 98.7814,
        "meta_ra_of_asc_node": 24.9281,
        "meta_arg_of_pericenter": 18.5411,
        "meta_mean_anomaly": 341.9902,
        "meta_ephemeris_type": 0,
        "meta_classification_type": "U",
        "meta_norad_cat_id": 36224,
        "meta_element_set_no": 999,
        "meta_rev_at_epoch": 64300,
        "meta_bstar": 0.00017250979,
        "meta_mean_motion_dot": 2.98e-06,
        "meta_mean_motion_ddot": 0,
        "tle_line1": "1 36224U 99025DUZ 25337.41023509  .00000298  00000+0  17251-3 0  9993",
        "tle_line2": "2 36224  98.7814  24.9281 0115063  18.5411 341.9902 14.12755501643000"
      },
      "geometry": {
        "type": "Point",
        "coordinates": [
          -146.19528875987825,
          36.74548077806429
        ]
      }
    },
    {
      "type": "Feature",
      "properties": {
        "norad_id": 36225,
        "name": "FENGYUN 1C DEB",
        "group": "fengyun-1c-debris",
        "lat": 70.64415711119983,
        "lon": 73.87723965426561,
        "alt_km": 558.6163996334471,
        "timestamp": "2025-12-05T16:54:14.934933+00:00",
        "meta_object_name": "FENGYUN 1C DEB",
        "meta_object_id": "1999-025DVA",
        "meta_epoch": "2025-12-05T07:00:38.521728",
        "meta_mean_motion": 15.05269466,
        "meta_eccentricity": 0.00445041,
        "meta_inclination": 98.8187,
        "meta_ra_of_asc_node": 99.6345,
        "meta_arg_of_pericenter": 314.8469,
        "meta_mean_anomaly": 44.9141,
        "meta_ephemeris_type": 0,
        "meta_classification_type": "U",
        "meta_norad_cat_id": 36225,
        "meta_element_set_no": 999,
        "meta_rev_at_epoch": 66660,
        "meta_bstar": 0.0045250921,
        "meta_mean_motion_dot": 0.00066606,
        "meta_mean_motion_ddot": 0,
        "tle_line1": "1 36225U 99025DVA 25339.29211252  .00066606  00000+0  45251-2 0  9991",
        "tle_line2": "2 36225  98.8187  99.6345 0044504 314.8469  44.9141 15.05269466666600"
      },
      "geometry": {
        "type": "Point",
        "coordinates": [
          73.87723965426561,
          70.64415711119983
        ]
      }
    }
  ]
}